{
  "type": "FeatureCollection",
  "features": [
    {
      "type": "Feature",
      "properties": {
        "norad_id": 40376,
        "name": "SMAP",
        "group": "resource",
        "lat": -69.79548943566577,
        "lon": 20.855732142383353,
        "alt_km": 690.4531546927956,
        "timestamp": "2025-12-19T08:58:48.994641+00:00",
        "meta_object_name": "SMAP",
        "meta_object_id": "2015-003A",
        "meta_epoch": "2025-12-18T21:49:08.430240",
        "meta_mean_motion": 14.63352619,
        "meta_eccentricity": 0.00012163,
        "meta_inclination": 98.1288,
        "meta_ra_of_asc_node": 357.544,
        "meta_arg_of_pericenter": 90.9833,
        "meta_mean_anomaly": 269.1508,
        "meta_ephemeris_type": 0,
        "meta_classification_type": "U",
        "meta_norad_cat_id": 40376,
        "meta_element_set_no": 999,
        "meta_rev_at_epoch": 58125,
        "meta_bstar": 9.1423225e-05,
        "meta_mean_motion_dot": 4.25e-06,
        "meta_mean_motion_ddot": 0,
        "tle_line1": "1 40376U 15003A   25352.90912535  .00000425  00000+0  91423-4 0  9993",
        "tle_line2": "2 40376  98.1288 357.5440 0001216  90.9833 269.1508 14.63352619581250"
      },
      "geometry": {
        "type": "Point",
        "coordinates": [
          20.855732142383353,
          -69.79548943566577
        ]
      }
    },
    {
      "type": "Feature",
      "properties": {
        "norad_id": 40536,
        "name": "KOMPSAT-3A",
        "group": "resource",
        "lat": 73.03087671607622,
        "lon": 174.33036555015468,
        "alt_km": 423.1771204265142,
        "timestamp": "2025-12-19T08:58:48.994651+00:00",
        "meta_object_name": "KOMPSAT-3A",
        "meta_object_id": "2015-014A",
        "meta_epoch": "2025-12-18T23:11:43.288800",
        "meta_mean_motion": 15.44166294,
        "meta_eccentricity": 0.00053466,
        "meta_inclination": 97.6788,
        "meta_ra_of_asc_node": 327.6575,
        "meta_arg_of_pericenter": 112.9139,
        "meta_mean_anomaly": 247.2674,
        "meta_ephemeris_type": 0,
        "meta_classification_type": "U",
        "meta_norad_cat_id": 40536,
        "meta_element_set_no": 999,
        "meta_rev_at_epoch": 59391,
        "meta_bstar": 0.00033891319,
        "meta_mean_motion_dot": 0.00015458,
        "meta_mean_motion_ddot": 0,
        "tle_line1": "1 40536U 15014A   25352.96647325  .00015458  00000+0  33891-3 0  9997",
        "tle_line2": "2 40536  97.6788 327.6575 0005346 112.9139 247.2674 15.44166294593915"
      },
      "geometry": {
        "type": "Point",
        "coordinates": [
          174.33036555015468,
          73.03087671607622
        ]
      }
    },
    {
      "type": "Feature",
      "properties": {
        "norad_id": 40697,
        "name": "SENTINEL-2A",
        "group": "resource",
        "lat": 75.94941837297901,
        "lon": -77.11121171230045,
        "alt_km": 781.096640923729,
        "timestamp": "2025-12-19T08:58:48.994662+00:00",
        "meta_object_name": "SENTINEL-2A",
        "meta_object_id": "2015-028A",
        "meta_epoch": "2025-12-18T22:26:21.625728",
        "meta_mean_motion": 14.30807413,
        "meta_eccentricity": 0.00010469,
        "meta_inclination": 98.5745,
        "meta_ra_of_asc_node": 65.38,
        "meta_arg_of_pericenter": 87.697,
        "meta_mean_anomaly": 272.4333,
        "meta_ephemeris_type": 0,
        "meta_classification_type": "U",
        "meta_norad_cat_id": 40697,
        "meta_element_set_no": 999,
        "meta_rev_at_epoch": 54795,
        "meta_bstar": 7.2115381e-05,
        "meta_mean_motion_dot": 1.45e-06,
        "meta_mean_motion_ddot": 0,
        "tle_line1": "1 40697U 15028A   25352.93497252  .00000145  00000+0  72115-4 0  9999",
        "tle_line2": "2 40697  98.5745  65.3800 0001046  87.6970 272.4333 14.30807413547951"
      },
      "geometry": {
        "type": "Point",
        "coordinates": [
          -77.11121171230045,
          75.94941837297901
        ]
      }
    },
    {
      "type": "Feature",
      "properties": {
        "norad_id": 40701,
        "name": "GAOFEN-8",
        "group": "resource",
        "lat": -19.69630002185652,
        "lon": -10.93460883631881,
        "alt_km": 454.1845632775148,
        "timestamp": "2025-12-19T08:58:48.994672+00:00",
        "meta_object_name": "GAOFEN-8",
        "meta_object_id": "2015-030A",
        "meta_epoch": "2025-12-18T22:45:06.177888",
        "meta_mean_motion": 15.38757237,
        "meta_eccentricity": 0.00118714,
        "meta_inclination": 97.6902,
        "meta_ra_of_asc_node": 171.3911,
        "meta_arg_of_pericenter": 116.9784,
        "meta_mean_anomaly": 243.2674,
        "meta_ephemeris_type": 0,
        "meta_classification_type": "U",
        "meta_norad_cat_id": 40701,
        "meta_element_set_no": 999,
        "meta_rev_at_epoch": 58366,
        "meta_bstar": 0.00048693956,
        "meta_mean_motion_dot": 0.00018633,
        "meta_mean_motion_ddot": 0,
        "tle_line1": "1 40701U 15030A   25352.94798817  .00018633  00000+0  48694-3 0  9995",
        "tle_line2": "2 40701  97.6902 171.3911 0011871 116.9784 243.2674 15.38757237583668"
      },
      "geometry": {
        "type": "Point",
        "coordinates": [
          -10.93460883631881,
          -19.69630002185652
        ]
      }
    },
    {
      "type": "Feature",
      "properties": {
        "norad_id": 40718,
        "name": "CARBONITE 1 (CBNT-1)",
        "group": "resource",
        "lat": -57.235713386771735,
        "lon": -17.912369060067117,
        "alt_km": 625.5321267415875,
        "timestamp": "2025-12-19T08:58:48.994682+00:00",
        "meta_object_name": "CARBONITE 1 (CBNT-1)",
        "meta_object_id": "2015-032D",
        "meta_epoch": "2025-12-18T23:48:47.873664",
        "meta_mean_motion": 14.82772416,
        "meta_eccentricity": 0.00148633,
        "meta_inclination": 97.6394,
        "meta_ra_of_asc_node": 173.7602,
        "meta_arg_of_pericenter": 161.0948,
        "meta_mean_anomaly": 199.0821,
        "meta_ephemeris_type": 0,
        "meta_classification_type": "U",
        "meta_norad_cat_id": 40718,
        "meta_element_set_no": 999,
        "meta_rev_at_epoch": 56263,
        "meta_bstar": 0.00025210393,
        "meta_mean_motion_dot": 1.991e-05,
        "meta_mean_motion_ddot": 0,
        "tle_line1": "1 40718U 15032D   25352.99222076  .00001991  00000+0  25210-3 0  9997",
        "tle_line2": "2 40718  97.6394 173.7602 0014863 161.0948 199.0821 14.82772416562631"
      },
      "geometry": {
        "type": "Point",
        "coordinates": [
          -17.912369060067117,
          -57.235713386771735
        ]
      }
    },
    {
      "type": "Feature",
      "properties": {
        "norad_id": 40878,
        "name": "YAOGAN-27",
        "group": "resource",
        "lat": -75.05703765449745,
        "lon": 24.59631367921189,
        "alt_km": 1201.4081382595023,
        "timestamp": "2025-12-19T08:58:48.994692+00:00",
        "meta_object_name": "YAOGAN-27",
        "meta_object_id": "2015-040A",
        "meta_epoch": "2025-12-18T22:26:00.080160",
        "meta_mean_motion": 13.16062156,
        "meta_eccentricity": 0.00075747,
        "meta_inclination": 100.1006,
        "meta_ra_of_asc_node": 342.2746,
        "meta_arg_of_pericenter": 271.2058,
        "meta_mean_anomaly": 88.8188,
        "meta_ephemeris_type": 0,
        "meta_classification_type": "U",
        "meta_norad_cat_id": 40878,
        "meta_element_set_no": 999,
        "meta_rev_at_epoch": 49395,
        "meta_bstar": 0.00057758699,
        "meta_mean_motion_dot": 1.77e-06,
        "meta_mean_motion_ddot": 0,
        "tle_line1": "1 40878U 15040A   25352.93472315  .00000177  00000+0  57759-3 0  9998",
        "tle_line2": "2 40878 100.1006 342.2746 0007574 271.2058  88.8188 13.16062156493955"
      },
      "geometry": {
        "type": "Point",
        "coordinates": [
          24.59631367921189,
          -75.05703765449745
        ]
      }
    },
    {
      "type": "Feature",
      "properties": {
        "norad_id": 40894,
        "name": "GAOFEN-9 01",
        "group": "resource",
        "lat": 28.64304631592485,
        "lon": -143.7450518153073,
        "alt_km": 634.850709315986,
        "timestamp": "2025-12-19T08:58:48.994702+00:00",
        "meta_object_name": "GAOFEN-9 01",
        "meta_object_id": "2015-047A",
        "meta_epoch": "2025-12-18T22:34:59.085696",
        "meta_mean_motion": 14.82437201,
        "meta_eccentricity": 0.00279044,
        "meta_inclination": 97.6535,
        "meta_ra_of_asc_node": 31.6285,
        "meta_arg_of_pericenter": 14.4223,
        "meta_mean_anomaly": 345.7781,
        "meta_ephemeris_type": 0,
        "meta_classification_type": "U",
        "meta_norad_cat_id": 40894,
        "meta_element_set_no": 999,
        "meta_rev_at_epoch": 55348,
        "meta_bstar": 0.00011639457,
        "meta_mean_motion_dot": 8.88e-06,
        "meta_mean_motion_ddot": 0,
        "tle_line1": "1 40894U 15047A   25352.94096164  .00000888  00000+0  11639-3 0  9994",
        "tle_line2": "2 40894  97.6535  31.6285 0027904  14.4223 345.7781 14.82437201553487"
      },
      "geometry": {
        "type": "Point",
        "coordinates": [
          -143.7450518153073,
          28.64304631592485
        ]
      }
    }
  ]
}